QIANFAN-25              
1 61558U 24185G   26014.10613242  .00000322  00000+0  18834-3 0  9990
2 61558  88.9774  74.5291 0009589 199.4668 160.6150 14.05938211 74051
QIANFAN-26              
1 61559U 24185H   26014.13825319  .00000222  00000+0  20867-3 0  9992
2 61559  88.9786  76.2577 0003657 268.9395  91.1352 13.77833421 73135
QIANFAN-27              
1 61560U 24185J   26014.13681287  .00000264  00000+0  10165-3 0  9994
2 61560  88.9778  73.1481 0008265 166.8445 193.2967 14.27376268 74785
QIANFAN-28              
1 61561U 24185K   26014.17283194  .00000587  00000+0  23025-3 0  9991
2 61561  88.9795  73.1493 0007800 165.5078 194.6342 14.28106693 74809
QIANFAN-29              
1 61562U 24185L   26014.17829634  .00000102  00000+0  13915-3 0  9997
2 61562  88.9763  77.9624 0008411 325.0826  34.9772 13.51023604 72172
QIANFAN-30              
1 61563U 24185M   26014.17773054  .00000136  00000+0  19567-3 0  9998
2 61563  88.9783  77.5005 0005798 309.4410  50.6227 13.50001158 72443
QIANFAN-31              
1 61564U 24185N   26014.17674720  .00000058  00000+0  63427-4 0  9997
2 61564  88.9767  77.2508 0005053 300.8003  59.2654 13.57980032 72564
QIANFAN-32              
1 61565U 24185P   26014.12824360  .00000137  00000+0  19500-3 0  9990
2 61565  88.9826  77.6493 0008304 340.5450  19.5383 13.50748555 72414
